HULIANWANG DIGUI-113    
1 66923U 25285J   26062.78294446 -.00000208  00000+0 -18133-3 0  9998
2 66923  50.0097 163.6982 0000046 332.8295  27.2574 13.29331356 12046
HULIANWANG DIGUI-114    
1 66953U 25287A   26062.97895317  .00000077  00000+0  14500-3 0  9994
2 66953  86.4977 317.9386 0001977  80.9212 279.2146 13.24415583 11419
HULIANWANG DIGUI-115    
1 66954U 25287B   26062.89583321  .00000094  00000+0  18398-3 0  9993
2 66954  86.4993 317.9755 0002058  80.5993 279.5374 13.24415666 11408
HULIANWANG DIGUI-116    
1 66955U 25287C   26062.88828664  .00000089  00000+0  17399-3 0  9999
2 66955  86.4933 317.9154 0002059  80.5735 279.5632 13.24415663 11405
HULIANWANG DIGUI-117    
1 66956U 25287D   26062.95631775  .00000088  00000+0  16984-3 0  9991
2 66956  86.4993 317.9433 0001353  22.6557 337.4636 13.24413770 11413
HULIANWANG DIGUI-118    
1 66957U 25287E   26062.94874793  .00000095  00000+0  18705-3 0  9991
2 66957  86.4969 317.9175 0002040  80.5691 279.5673 13.24415107 11419
HULIANWANG DIGUI-119    
1 67059U 25295A   26062.07289615 -.00000061  00000+0  10846-3 0  9993
2 67059  50.0099  47.5635 0000609 106.8761 253.2187 13.51029834 11361
HULIANWANG DIGUI-120    
1 67060U 25295B   26062.79994701 -.00000062  00000+0  10824-3 0  9990
2 67060  50.0053  44.7690 0001089 322.3204  37.7601 13.50760701 11464
HULIANWANG DIGUI-121    
1 67061U 25295C   26062.06681519 -.00000061  00000+0  10909-3 0  9994
2 67061  49.9999  47.5304 0001948 282.1047  77.9616 13.51357169 11368
HULIANWANG DIGUI-122    
1 67062U 25295D   26062.71915299 -.00000063  00000+0  10638-3 0  9993
2 67062  50.0007  45.0158 0001835 118.3707 241.7359 13.51053160 11459
HULIANWANG DIGUI-123    
1 67063U 25295E   26062.19420728 -.00000042  00000+0  13716-3 0  9991
2 67063  50.0058  46.9026 0000742 273.8979  86.1818 13.51163893 11382
HULIANWANG DIGUI-124    
1 67064U 25295F   26062.85402733 -.00000057  00000+0  11422-3 0  9999
2 67064  50.0011  44.3490 0000633 348.9504  11.1363 13.51154708 11474
HULIANWANG DIGUI-125    
1 67065U 25295G   26062.84745099 -.00000058  00000+0  11281-3 0  9998
2 67065  49.9987  44.3079 0001264  15.7402 344.3519 13.51200294 11470
HULIANWANG DIGUI-126    
1 67066U 25295H   26062.32247343 -.00000080  00000+0  79664-4 0  9996
2 67066  49.9966  46.1982 0001436  46.9301 313.1700 13.51245278 11406
HULIANWANG DIGUI-127    
1 67067U 25295J   26062.82970723 -.00000319  00000+0 -28853-3 0  9996
2 67067  50.0015  44.2319 0000696  23.4353 336.6560 13.51069581 11474
HULIANWANG DIGUI-128    
1 67236U 25311A   26062.34722739 -.00000060  00000+0  12954-3 0  9999
2 67236  50.0101 135.2234 0002353 353.5774   6.5071 13.35891953  9263
